SL-3 R/B                
1 19046U 88032B   26070.24675954  .00006074  00000+0  28361-3 0  9997
2 19046  97.5196  53.4922 0024536 225.7331 134.1891 15.19930295 52342
SL-16 R/B               
1 19120U 88039B   26070.31909738  .00000037  00000+0  40439-4 0  9999
2 19120  71.0136  65.1018 0022867 331.9763  28.0129 14.19615606958611
COSMOS 1953             
1 19210U 88050A   26070.32769398  .00009348  00000+0  33454-3 0  9991
2 19210  82.5102 156.5999 0012577 117.4744 242.7776 15.28559134 38039
SL-8 R/B                
1 19257U 88053B   26070.32979719  .00000273  00000+0  96980-4 0  9997
2 19257  74.0458 109.4430 0021446 288.4865 156.9852 14.38916797976837
COSMOS 1975             
1 19573U 88093A   26070.16545528  .00007058  00000+0  25598-3 0  9995
2 19573  82.5181 116.2036 0012277 158.4381 201.7378 15.28093792 19633
SL-14 R/B               
1 19574U 88093B   26070.29107057  .00000732  00000+0  81342-4 0  9993
2 19574  82.5308  40.5402 0021646  36.4305  90.8277 14.85658793  1256
SL-16 R/B               
1 19650U 88102B   26070.31762808  .00000297  00000+0  17401-3 0  9993
2 19650  71.0000 148.0725 0014076 359.0878   1.0217 14.16153142927126
INTERCOSMOS 24          
1 20261U 89080A   26070.15284191  .00000821  00000+0  24466-3 0  9997
2 20261  82.6024 103.4514 1186680 289.4208  58.2533 12.59560258666980
SL-14 R/B               
1 20262U 89080C   26070.31626809  .00000661  00000+0  19407-3 0  9993
2 20262  82.5975 172.1424 1230626 181.0327 178.8197 12.50496014660356
DELTA 1 R/B             
1 20323U 89089B   26070.27626053  .00000388  00000+0  10424-3 0  9992
2 20323  97.0705 277.4627 0070542 117.0494 243.7926 14.50664328895968
ARIANE 40 R/B           
1 20443U 90005H   26070.13386146  .00000304  00000+0  11031-3 0  9999
2 20443  98.3080 130.7523 0009949 194.2151 165.8760 14.39871501893011
DELTA 2 R/B(1)          
1 20453U 90008B   26070.29932010  .00064230  00000+0  74552-3 0  9992
2 20453  35.6037 164.2881 0084932 273.5891  85.5135 15.56213961926385
